start=new Date('2022-06-29T00:00:00.000Z').valueOf();
sats=[{"ELEMENT_SET_NO":"999","TIME_SYSTEM":"UTC","MEAN_MOTION_DOT":"-0.00000785","RA_OF_ASC_NODE":"36.3804","SITE":"AFETR","ARG_OF_PERICENTER":"71.0369","CLASSIFICATION_TYPE":"U","CENTER_NAME":"EARTH","MEAN_MOTION_DDOT":"0.0000000000000","FILE":"3504891","OBJECT_ID":"2021-041AF","ECCENTRICITY":"0.00016480","EPOCH":"2022-06-28T20:43:10.463520","PERIAPSIS":"546.079","REF_FRAME":"TEME","MEAN_MOTION":"15.06397914","MEAN_ELEMENT_THEORY":"SGP4","EPHEMERIS_TYPE":"0","MEAN_ANOMALY":"289.0799","RCS_SIZE":"LARGE","OBJECT_NAME":"STARLINK-2236","GP_ID":"207037236","TLE_LINE2":"2 48582  53.0556  36.3804 0001648  71.0369 289.0799 15.06397914 62683","SEMIMAJOR_AXIS":"6925.355","LAUNCH_DATE":"2021-05-15","OBJECT_TYPE":"PAYLOAD","TLE_LINE1":"1 48582U 21041AF  22179.86331555 -.00000785  00000-0 -33817-4 0  9990","INCLINATION":"53.0556","REV_AT_EPOCH":"6268","APOAPSIS":"548.361","PERIOD":"95.592","COUNTRY_CODE":"US","DECAY_DATE":null,"NORAD_CAT_ID":"48582","BSTAR":"-0.00003381700000"},{"ELEMENT_SET_NO":"999","TIME_SYSTEM":"UTC","MEAN_MOTION_DOT":"-0.00001240","RA_OF_ASC_NODE":"81.7996","SITE":"AFETR","ARG_OF_PERICENTER":"71.3318","CENTER_NAME":"EARTH","CLASSIFICATION_TYPE":"U","MEAN_MOTION_DDOT":"0.0000000000000","FILE":"3504942","OBJECT_ID":"2021-041AG","ECCENTRICITY":"0.00016480","EPOCH":"2022-06-28T17:39:22.875552","REF_FRAME":"TEME","PERIAPSIS":"546.089","MEAN_MOTION":"15.06394399","MEAN_ELEMENT_THEORY":"SGP4","EPHEMERIS_TYPE":"0","MEAN_ANOMALY":"288.7850","RCS_SIZE":"LARGE","OBJECT_NAME":"STARLINK-2237","GP_ID":"207058914","TLE_LINE2":"2 48583  53.0547  81.7996 0001648  71.3318 288.7850 15.06394399 62045","SEMIMAJOR_AXIS":"6925.366","LAUNCH_DATE":"2021-05-15","OBJECT_TYPE":"PAYLOAD","TLE_LINE1":"1 48583U 21041AG  22179.73568143 -.00001240  00000-0 -64337-4 0  9990","INCLINATION":"53.0547","REV_AT_EPOCH":"6204","APOAPSIS":"548.372","PERIOD":"95.592","COUNTRY_CODE":"US","DECAY_DATE":null,"NORAD_CAT_ID":"48583","BSTAR":"-0.00006433700000"},{"REV_AT_EPOCH":"6160","APOAPSIS":"548.414","COUNTRY_CODE":"US","DECAY_DATE":null,"NORAD_CAT_ID":"48584","BSTAR":"-0.00003209800000","PERIOD":"95.592","GP_ID":"207058661","SEMIMAJOR_AXIS":"6925.354","TLE_LINE2":"2 48584  53.0554  81.3265 0001725  64.5601 295.5566 15.06398066 61600","LAUNCH_DATE":"2021-05-15","OBJECT_TYPE":"PAYLOAD","TLE_LINE1":"1 48584U 21041AH  22179.84256285 -.00000760  00000-0 -32098-4 0  9999","MEAN_ANOMALY":"295.5566","RCS_SIZE":"LARGE","OBJECT_NAME":"STARLINK-2238","INCLINATION":"53.0554","ECCENTRICITY":"0.00017250","EPOCH":"2022-06-28T20:13:17.430240","MEAN_MOTION":"15.06398066","MEAN_ELEMENT_THEORY":"SGP4","EPHEMERIS_TYPE":"0","REF_FRAME":"TEME","PERIAPSIS":"546.025","MEAN_MOTION_DOT":"-0.00000760","SITE":"AFETR","RA_OF_ASC_NODE":"81.3265","ELEMENT_SET_NO":"999","TIME_SYSTEM":"UTC","CENTER_NAME":"EARTH","CLASSIFICATION_TYPE":"U","MEAN_MOTION_DDOT":"0.0000000000000","FILE":"3504942","OBJECT_ID":"2021-041AH","ARG_OF_PERICENTER":"64.5601"},{"PERIAPSIS":"546.171","REF_FRAME":"TEME","EPHEMERIS_TYPE":"0","MEAN_MOTION":"15.06399022","MEAN_ELEMENT_THEORY":"SGP4","EPOCH":"2022-06-28T17:18:08.001216","ECCENTRICITY":"0.00015100","ARG_OF_PERICENTER":"74.9363","FILE":"3504942","OBJECT_ID":"2021-041AJ","CLASSIFICATION_TYPE":"U","CENTER_NAME":"EARTH","MEAN_MOTION_DDOT":"0.0000000000000","TIME_SYSTEM":"UTC","ELEMENT_SET_NO":"999","MEAN_MOTION_DOT":"-0.00001238","RA_OF_ASC_NODE":"81.8778","SITE":"AFETR","PERIOD":"95.592","NORAD_CAT_ID":"48585","BSTAR":"-0.00006420500000","COUNTRY_CODE":"US","DECAY_DATE":null,"REV_AT_EPOCH":"6198","APOAPSIS":"548.262","INCLINATION":"53.0562","RCS_SIZE":"LARGE","OBJECT_NAME":"STARLINK-2240","MEAN_ANOMALY":"285.1793","LAUNCH_DATE":"2021-05-15","TLE_LINE1":"1 48585U 21041AJ  22179.72092594 -.00001238  00000-0 -64205-4 0  9994","OBJECT_TYPE":"PAYLOAD","GP_ID":"207059414","SEMIMAJOR_AXIS":"6925.352","TLE_LINE2":"2 48585  53.0562  81.8778 0001510  74.9363 285.1793 15.06399022 61987"},{"RA_OF_ASC_NODE":"81.9033","SITE":"AFETR","MEAN_MOTION_DOT":"-0.00000203","ELEMENT_SET_NO":"999","TIME_SYSTEM":"UTC","MEAN_MOTION_DDOT":"0.0000000000000","CENTER_NAME":"EARTH","CLASSIFICATION_TYPE":"U","OBJECT_ID":"2021-041AK","FILE":"3504942","ARG_OF_PERICENTER":"70.8129","ECCENTRICITY":"0.00013680","EPOCH":"2022-06-28T17:07:31.258272","MEAN_MOTION":"15.06395166","MEAN_ELEMENT_THEORY":"SGP4","EPHEMERIS_TYPE":"0","PERIAPSIS":"546.281","REF_FRAME":"TEME","TLE_LINE2":"2 48586  53.0552  81.9033 0001368  70.8129 289.3008 15.06395166 61584","SEMIMAJOR_AXIS":"6925.363","GP_ID":"207060158","TLE_LINE1":"1 48586U 21041AK  22179.71355623 -.00000203  00000-0  52779-5 0  9993","OBJECT_TYPE":"PAYLOAD","LAUNCH_DATE":"2021-05-15","MEAN_ANOMALY":"289.3008","OBJECT_NAME":"STARLINK-2241","RCS_SIZE":"LARGE","INCLINATION":"53.0552","APOAPSIS":"548.176","REV_AT_EPOCH":"6158","DECAY_DATE":null,"COUNTRY_CODE":"US","BSTAR":"0.00000527790000","NORAD_CAT_ID":"48586","PERIOD":"95.592"},{"INCLINATION":"53.0583","RCS_SIZE":"LARGE","OBJECT_NAME":"STARLINK-2242","MEAN_ANOMALY":"292.4938","LAUNCH_DATE":"2021-05-15","TLE_LINE1":"1 48587U 21041AL  22179.71725534 -.00001509  00000-0 -82432-4 0  9995","OBJECT_TYPE":"PAYLOAD","GP_ID":"207058414","TLE_LINE2":"2 48587  53.0583  81.8839 0001497  67.6210 292.4938 15.06384495 61580","SEMIMAJOR_AXIS":"6925.396","PERIOD":"95.593","NORAD_CAT_ID":"48587","BSTAR":"-0.00008243200000","COUNTRY_CODE":"US","DECAY_DATE":null,"REV_AT_EPOCH":"6158","APOAPSIS":"548.298","ARG_OF_PERICENTER":"67.6210","FILE":"3504942","OBJECT_ID":"2021-041AL","CLASSIFICATION_TYPE":"U","CENTER_NAME":"EARTH","MEAN_MOTION_DDOT":"0.0000000000000","TIME_SYSTEM":"UTC","ELEMENT_SET_NO":"999","MEAN_MOTION_DOT":"-0.00001509","RA_OF_ASC_NODE":"81.8839","SITE":"AFETR","PERIAPSIS":"546.224","REF_FRAME":"TEME","EPHEMERIS_TYPE":"0","MEAN_MOTION":"15.06384495","MEAN_ELEMENT_THEORY":"SGP4","EPOCH":"2022-06-28T17:12:50.861376","ECCENTRICITY":"0.00014970"},{"ARG_OF_PERICENTER":"78.4741","OBJECT_ID":"2021-041AM","FILE":"3504942","MEAN_MOTION_DDOT":"0.0000000000000","CLASSIFICATION_TYPE":"U","CENTER_NAME":"EARTH","TIME_SYSTEM":"UTC","ELEMENT_SET_NO":"999","RA_OF_ASC_NODE":"71.0857","SITE":"AFETR","MEAN_MOTION_DOT":"-0.00001025","PERIAPSIS":"546.196","REF_FRAME":"TEME","EPHEMERIS_TYPE":"0","MEAN_MOTION":"15.06385144","MEAN_ELEMENT_THEORY":"SGP4","EPOCH":"2022-06-28T21:28:56.411040","ECCENTRICITY":"0.00015350","INCLINATION":"53.0552","OBJECT_NAME":"STARLINK-2244","RCS_SIZE":"LARGE","MEAN_ANOMALY":"281.6421","TLE_LINE1":"1 48588U 21041AM  22179.89509735 -.00001025  00000-0 -49922-4 0  9998","OBJECT_TYPE":"PAYLOAD","LAUNCH_DATE":"2021-05-15","TLE_LINE2":"2 48588  53.0552  71.0857 0001535  78.4741 281.6421 15.06385144 61758","SEMIMAJOR_AXIS":"6925.394","GP_ID":"207059162","PERIOD":"95.593","BSTAR":"-0.00004992200000","NORAD_CAT_ID":"48588","DECAY_DATE":null,"COUNTRY_CODE":"US","APOAPSIS":"548.322","REV_AT_EPOCH":"6175"},{"MEAN_ANOMALY":"287.3715","RCS_SIZE":"LARGE","OBJECT_NAME":"STARLINK-2245","GP_ID":"207059915","TLE_LINE2":"2 48589  53.0563  71.1086 0001604  72.7450 287.3715 15.06397176 61754","SEMIMAJOR_AXIS":"6925.357","LAUNCH_DATE":"2021-05-15","OBJECT_TYPE":"PAYLOAD","TLE_LINE1":"1 48589U 21041AN  22179.89141772 -.00004781  00000-0 -30230-3 0  9995","INCLINATION":"53.0563","REV_AT_EPOCH":"6175","APOAPSIS":"548.333","PERIOD":"95.592","COUNTRY_CODE":"US","DECAY_DATE":null,"NORAD_CAT_ID":"48589","BSTAR":"-0.00030230000000","ELEMENT_SET_NO":"999","TIME_SYSTEM":"UTC","MEAN_MOTION_DOT":"-0.00004781","SITE":"AFETR","RA_OF_ASC_NODE":"71.1086","ARG_OF_PERICENTER":"72.7450","CLASSIFICATION_TYPE":"U","CENTER_NAME":"EARTH","MEAN_MOTION_DDOT":"0.0000000000000","FILE":"3504942","OBJECT_ID":"2021-041AN","ECCENTRICITY":"0.00016040","EPOCH":"2022-06-28T21:23:38.491008","REF_FRAME":"TEME","PERIAPSIS":"546.111","MEAN_ELEMENT_THEORY":"SGP4","MEAN_MOTION":"15.06397176","EPHEMERIS_TYPE":"0"},{"PERIAPSIS":"546.123","REF_FRAME":"TEME","EPHEMERIS_TYPE":"0","MEAN_MOTION":"15.06382911","MEAN_ELEMENT_THEORY":"SGP4","EPOCH":"2022-06-28T21:01:01.911648","ECCENTRICITY":"0.00016500","ARG_OF_PERICENTER":"62.6523","OBJECT_ID":"2021-041AQ","FILE":"3504942","MEAN_MOTION_DDOT":"0.0000000000000","CLASSIFICATION_TYPE":"U","CENTER_NAME":"EARTH","TIME_SYSTEM":"UTC","ELEMENT_SET_NO":"999","SITE":"AFETR","RA_OF_ASC_NODE":"71.1794","MEAN_MOTION_DOT":"-0.00000021","PERIOD":"95.593","BSTAR":"0.00001749100000","NORAD_CAT_ID":"48591","DECAY_DATE":null,"COUNTRY_CODE":"US","APOAPSIS":"548.409","REV_AT_EPOCH":"6265","INCLINATION":"53.0555","OBJECT_NAME":"STARLINK-2248","RCS_SIZE":"LARGE","MEAN_ANOMALY":"297.4634","OBJECT_TYPE":"PAYLOAD","TLE_LINE1":"1 48591U 21041AQ  22179.87571657 -.00000021  00000-0  17491-4 0  9992","LAUNCH_DATE":"2021-05-15","TLE_LINE2":"2 48591  53.0555  71.1794 0001650  62.6523 297.4634 15.06382911 62657","SEMIMAJOR_AXIS":"6925.401","GP_ID":"207059658"},{"MEAN_ANOMALY":"303.4531","OBJECT_NAME":"STARLINK-2249","RCS_SIZE":"LARGE","SEMIMAJOR_AXIS":"6925.412","TLE_LINE2":"2 48592  53.0556  81.1550 0001579  56.6609 303.4531 15.06379299 61612","GP_ID":"207058915","TLE_LINE1":"1 48592U 21041AR  22179.88587073 -.00001551  00000-0 -85304-4 0  9991","OBJECT_TYPE":"PAYLOAD","LAUNCH_DATE":"2021-05-15","INCLINATION":"53.0556","APOAPSIS":"548.371","REV_AT_EPOCH":"6161","PERIOD":"95.593","DECAY_DATE":null,"COUNTRY_CODE":"US","BSTAR":"-0.00008530400000","NORAD_CAT_ID":"48592","ELEMENT_SET_NO":"999","TIME_SYSTEM":"UTC","RA_OF_ASC_NODE":"81.1550","SITE":"AFETR","MEAN_MOTION_DOT":"-0.00001551","ARG_OF_PERICENTER":"56.6609","MEAN_MOTION_DDOT":"0.0000000000000","CLASSIFICATION_TYPE":"U","CENTER_NAME":"EARTH","OBJECT_ID":"2021-041AR","FILE":"3504942","ECCENTRICITY":"0.00015790","EPOCH":"2022-06-28T21:15:39.231072","PERIAPSIS":"546.183","REF_FRAME":"TEME","MEAN_ELEMENT_THEORY":"SGP4","MEAN_MOTION":"15.06379299","EPHEMERIS_TYPE":"0"}];
